NUSHSAT1                
1 63211U 25052B   26068.64700493  .00023034  00000+0  74857-3 0  9997
2 63211  97.4095 325.7239 0005501  84.7512 275.4357 15.31903202 54882
STARLINK-35830          
1 66284U 25247V   26068.56624916  .00017388  00000+0  59804-3 0  9992
2 66284  53.1572 192.0895 0001010  83.5422 276.5694 15.30187075 21011
